NORAD_CAT_ID,OBJECT_NAME,OBJECT_TYPE,EPOCH,MEAN_MOTION,ECCENTRICITY,INCLINATION,RA_OF_ASC_NODE,ARG_OF_PERICENTER,MEAN_ANOMALY,BSTAR,MEAN_MOTION_DOT,MEAN_MOTION_DDOT,TLE_LINE0,TLE_LINE1,TLE_LINE2,SEMIMAJOR_AXIS,PERIOD,APOGEE,PERIGEE,DECAYED
52832.0,STARLINK-4083,PAYLOAD,2022-10-24 06:00:00,15.0884734,0.0001728,53.2153,166.7515,46.2265,351.1649,-0.00484,-0.00076515,0.0,0 STARLINK-4083,1 52832U 22062C   22297.25001157 -.00076515  00000-0 -48400-2 0  9999,2 52832  53.2153 166.7515 0001728  46.2265 351.1649 15.08847340 20219,6917.858,95.437,540.918,538.528,0.0
52832.0,STARLINK-4083,PAYLOAD,2022-10-24 14:00:01,15.08781394,0.0001685,53.2154,165.2538,54.9952,353.9694,0.0029439,0.000468,0.0,0 STARLINK-4083,1 52832U 22062C   22297.58334491  .00046800  00000-0  29439-2 0  9998,2 52832  53.2154 165.2538 0001685  54.9952 353.9694 15.08781394  1305,6918.06,95.441,541.09,538.759,0.0
52832.0,STARLINK-4083,PAYLOAD,2022-10-24 22:00:00,15.08809765,0.0001878,53.2153,163.7592,50.5552,9.9541,-0.00049668,-8.178e-05,0.0,0 STARLINK-4083,1 52832U 22062C   22297.91667824 -.00008178  00000-0 -49668-3 0  9999,2 52832  53.2153 163.7592 0001878  50.5552   9.9541 15.08809765  1301,6917.973000000001,95.439,541.137,538.539,0.0
52832.0,STARLINK-4083,PAYLOAD,2022-10-25 00:00:00,15.08793876,0.0001896999999999,53.2155,163.3854,49.2321,104.1705,0.0018424,0.00029119,0.0,0 STARLINK-4083,1 52832U 22062C   22298.00001157  .00029119  00000-0  18424-2 0  9992,2 52832  53.2155 163.3854 0001897  49.2321 104.1705 15.08793876 20339,6918.021,95.44,541.1990000000002,538.5740000000002,0.0
52832.0,STARLINK-4083,PAYLOAD,2022-10-25 14:00:01,15.08819569,0.0001737,53.2155,160.7646,54.6278,29.0277,0.002323,0.00036856,0.0,0 STARLINK-4083,1 52832U 22062C   22298.58334491  .00036856  00000-0  23230-2 0  9992,2 52832  53.2155 160.7646 0001737  54.6278  29.0277 15.08819569  1306,6917.943,95.439,541.009,538.606,0.0
52832.0,STARLINK-4083,PAYLOAD,2022-10-25 22:00:01,15.088400199999995,0.0001914,53.2154,159.2699,50.0872,45.2188,-0.00034379,-5.756e-05,0.0,0 STARLINK-4083,1 52832U 22062C   22298.91668981 -.00005756  00000-0 -34379-3 0  9997,2 52832  53.2154 159.2699 0001914  50.0872  45.2188 15.08840020  1300,6917.88,95.438,541.069,538.4209999999998,0.0
52832.0,STARLINK-4083,PAYLOAD,2022-10-26 08:00:01,15.08854313,0.0001794,53.2154,157.3982,51.8347,147.9643,-0.00090863,-0.00014726,0.0,0 STARLINK-4083,1 52832U 22062C   22299.33335648 -.00014726  00000-0 -90863-3 0  9992,2 52832  53.2154 157.3982 0001794  51.8347 147.9643 15.08854313 20538,6917.837,95.437,540.943,538.461,0.0
52832.0,STARLINK-4083,PAYLOAD,2022-10-26 14:00:01,15.08845161,0.0001759,53.2155,156.2753,56.2213,62.2192,0.0016477999999999,0.00026038,0.0,0 STARLINK-4083,1 52832U 22062C   22299.58334491  .00026038  00000-0  16478-2 0  9990,2 52832  53.2155 156.2753 0001759  56.2213  62.2192 15.08845161  1308,6917.865,95.437,540.946,538.513,0.0
52832.0,STARLINK-4083,PAYLOAD,2022-10-26 22:00:00,15.08851576,0.0001869,53.2153,154.7806,49.7523,80.3001,-0.0022453,-0.00035856,0.0,0 STARLINK-4083,1 52832U 22062C   22299.91667824 -.00035856  00000-0 -22453-2 0  9996,2 52832  53.2153 154.7806 0001869  49.7523  80.3001 15.08851576  1308,6917.845,95.437,541.003,538.4169999999998,0.0
52832.0,STARLINK-4083,PAYLOAD,2022-10-27 14:00:01,15.08837798,0.0001684,53.2153,151.786,56.3198,96.9825,0.0014717,0.0002320999999999,0.0,0 STARLINK-4083,1 52832U 22062C   22300.58335648  .00023210  00000-0  14717-2 0  9991,2 52832  53.2153 151.7860 0001684  56.3198  96.9825 15.08837798  1309,6917.887,95.438,540.9169999999998,538.587,0.0
52832.0,STARLINK-4083,PAYLOAD,2022-10-27 22:00:00,15.08842488,0.0001834,53.215,150.2914,50.0489,114.7957,0.00048727,7.476e-05,0.0,0 STARLINK-4083,1 52832U 22062C   22300.91667824  .00007476  00000-0  48727-3 0  9997,2 52832  53.2150 150.2914 0001834  50.0489 114.7957 15.08842488  1308,6917.873000000001,95.437,541.007,538.469,0.0
52832.0,STARLINK-4083,PAYLOAD,2022-10-28 08:00:01,15.08860039,0.0001641,53.2149,148.4193,51.9364,217.482,-0.0026441999999999,-0.00042148,0.0,0 STARLINK-4083,1 52832U 22062C   22301.33335648 -.00042148  00000-0 -26442-2 0  9996,2 52832  53.2149 148.4193 0001641  51.9364 217.4820 15.08860039 20833,6917.819,95.436,540.819,538.549,0.0
52832.0,STARLINK-4083,PAYLOAD,2022-10-28 14:00:01,15.08831744,0.0001595,53.215,147.2968,56.0026,132.1161,0.0010245,0.00016051,0.0,0 STARLINK-4083,1 52832U 22062C   22301.58335648  .00016051  00000-0  10245-2 0  9999,2 52832  53.2150 147.2968 0001595  56.0026 132.1161 15.08831744  1304,6917.906,95.438,540.874,538.6669999999998,0.0
52832.0,STARLINK-4083,PAYLOAD,2022-10-28 22:00:01,15.08828626,0.0001759,53.2148,145.8021,48.9504,150.7642,0.0011147,0.00017491,0.0,0 STARLINK-4083,1 52832U 22062C   22301.91668981  .00017491  00000-0  11147-2 0  9996,2 52832  53.2148 145.8021 0001759  48.9504 150.7642 15.08828626 20922,6917.915,95.438,540.997,538.563,0.0
52832.0,STARLINK-4083,PAYLOAD,2022-10-29 12:00:00,15.08816115,0.0001514,53.2146,143.1814,53.6552,76.2978,0.0022039,0.00034938,0.0,0 STARLINK-4083,1 52832U 22062C   22302.50001157  .00034938  00000-0  22039-2 0  9995,2 52832  53.2146 143.1814 0001514  53.6552  76.2978 15.08816115  1301,6917.953,95.439,540.866,538.771,0.0
52832.0,STARLINK-4083,PAYLOAD,2022-10-29 22:00:01,15.08822424,0.0001730999999999,53.2147,141.3129,47.2044,187.2933,0.0018109,0.00028636,0.0,0 STARLINK-4083,1 52832U 22062C   22302.91668981  .00028636  00000-0  18109-2 0  9995,2 52832  53.2147 141.3129 0001731  47.2044 187.2933 15.08822424  1301,6917.934,95.439,540.997,538.602,0.0
52832.0,STARLINK-4083,PAYLOAD,2022-10-30 00:00:00,15.08815939,0.0001719,53.2146,140.939,45.8033,281.53,0.0032399,0.00051619,0.0,0 STARLINK-4083,1 52832U 22062C   22303.00001157  .00051619  00000-0  32399-2 0  9996,2 52832  53.2146 140.9390 0001719  45.8033 281.5300 15.08815939 21089,6917.954000000002,95.439,541.008,538.63,0.0
52832.0,STARLINK-4083,PAYLOAD,2022-10-30 14:00:01,15.08825114,0.0001523,53.2149,138.3185,52.243,205.3647,0.00046581,7.13e-05,0.0,0 STARLINK-4083,1 52832U 22062C   22303.58334491  .00007130  00000-0  46581-3 0  9997,2 52832  53.2149 138.3185 0001523  52.2430 205.3647 15.08825114  1308,6917.926,95.438,540.844,538.737,0.0
52832.0,STARLINK-4083,PAYLOAD,2022-10-30 22:00:01,15.08810186,0.0001730999999999,53.215,136.8238,44.9655,224.289,0.0021352,0.0003383,0.0,0 STARLINK-4083,1 52832U 22062C   22303.91668981  .00033830  00000-0  21352-2 0  9992,2 52832  53.2150 136.8238 0001731  44.9655 224.2890 15.08810186  1303,6917.972,95.439,541.034,538.639,0.0
52832.0,STARLINK-4083,PAYLOAD,2022-10-31 14:00:01,15.08841973,0.0001588999999999,53.2153,133.8294,50.7397,241.6396,0.00010877,1.444e-05,0.0,0 STARLINK-4083,1 52832U 22062C   22304.58334491  .00001444  00000-0  10877-3 0  9999,2 52832  53.2153 133.8294 0001589  50.7397 241.6396 15.08841973  1306,6917.874,95.437,540.839,538.64,0.0
52832.0,STARLINK-4083,PAYLOAD,2022-10-31 22:00:01,15.08822036,0.0001804,53.2155,132.3346,44.4098,259.6347,0.0024406,0.00038749,0.0,0 STARLINK-4083,1 52832U 22062C   22304.91668981  .00038749  00000-0  24406-2 0  9990,2 52832  53.2155 132.3346 0001804  44.4098 259.6347 15.08822036  1302,6917.935,95.439,541.048,538.552,0.0
52832.0,STARLINK-4083,PAYLOAD,2022-11-01 00:00:02,15.08823275,0.000178,53.2154,131.9605,42.5684,354.3732,0.0028734,0.00045718,0.0,0 STARLINK-4083,1 52832U 22062C   22305.00002315  .00045718  00000-0  28734-2 0  9996,2 52832  53.2154 131.9605 0001780  42.5684 354.3732 15.08823275 21384,6917.932,95.439,541.028,538.565,0.0
52832.0,STARLINK-4083,PAYLOAD,2022-11-01 14:00:01,15.08861356,0.0001744,53.216,129.3402,52.1139,275.063,-0.0025053,-0.00039963,0.0,0 STARLINK-4083,1 52832U 22062C   22305.58334491 -.00039963  00000-0 -25053-2 0  9990,2 52832  53.2160 129.3402 0001744  52.1139 275.0630 15.08861356 21477,6917.815,95.436,540.887,538.474,0.0
52832.0,STARLINK-4083,PAYLOAD,2022-11-01 22:00:00,15.08814092,0.0001948,53.216,127.8455,46.926,291.8594,0.0025113,0.00039878,0.0,0 STARLINK-4083,1 52832U 22062C   22305.91667824  .00039878  00000-0  25113-2 0  9996,2 52832  53.2160 127.8455 0001948  46.9260 291.8594 15.08814092  1300,6917.96,95.439,541.172,538.477,0.0
52832.0,STARLINK-4083,PAYLOAD,2022-11-02 06:00:00,15.08842588,0.0001764999999999,53.2161,126.3476,48.5547,301.8147,-0.0028257,-0.00044982,0.0,0 STARLINK-4083,1 52832U 22062C   22306.25001157 -.00044982  00000-0 -28257-2 0  9991,2 52832  53.2161 126.3476 0001765  48.5547 301.8147 15.08842588 21579,6917.871999999999,95.437,540.9580000000002,538.516,0.0
52832.0,STARLINK-4083,PAYLOAD,2022-11-02 14:00:01,15.08831959,0.000172,53.2165,124.851,50.7827,311.1606,-0.00062905,-0.00010283,0.0,0 STARLINK-4083,1 52832U 22062C   22306.58334491 -.00010283  00000-0 -62905-3 0  9993,2 52832  53.2165 124.8510 0001720  50.7827 311.1606 15.08831959  1305,6917.905,95.438,540.96,538.58,0.0
52832.0,STARLINK-4083,PAYLOAD,2022-11-02 18:00:02,15.08827785,0.0001835,53.2167,124.1042,47.8092,139.9891,-0.00080614,-0.00013091,0.0,0 STARLINK-4083,1 52832U 22062C   22306.75002315 -.00013091  00000-0 -80614-3 0  9996,2 52832  53.2167 124.1042 0001835  47.8092 139.9891 15.08827785 21652,6917.918000000002,95.438,541.052,538.513,0.0
52832.0,STARLINK-4083,PAYLOAD,2022-11-03 12:14:56,15.08834377,0.0001663,53.2171,120.6888,49.5025,310.6112,1.2729e-05,-8.5e-07,0.0,0 STARLINK-4083,1 52832U 22062C   22307.51037192 -.00000085  00000-0  12729-4 0  9993,2 52832  53.2171 120.6888 0001663  49.5025 310.6112 15.08834377 21761,6917.898,95.438,540.913,538.612,0.0
52832.0,STARLINK-4083,PAYLOAD,2022-11-03 20:11:51,15.08840307,0.0001726,53.2169,119.2022,50.6934,309.4211,6.224899999999999e-05,7.03e-06,0.0,0 STARLINK-4083,1 52832U 22062C   22307.84156746  .00000703  00000-0  62249-4 0  9994,2 52832  53.2169 119.2022 0001726  50.6934 309.4211 15.08840307 21322,6917.879,95.438,540.938,538.55,0.0
